{
  "type": "FeatureCollection",
  "name": "model_areas",
  "crs": {
    "type": "name",
    "properties": {"name": "urn:ogc:def:crs:OGC:1.3:CRS84"}
  },
  "features": [
    {
      "type": "Feature",
      "properties": {"type": "inflow_area"},
      "geometry": {
        "type": "Polygon",
        "coordinates": [[[122.1902406, 40.3046437], [122.192079, 40.304893], [122.1939173, 40.3042076], [122.1960825, 40.3038337], [122.1974306, 40.3029614], [122.1963685, 40.3014036], [122.1933862, 40.3008739], [122.1916704, 40.3009986], [122.1895461, 40.3025875], [122.1897095, 40.3036779], [122.1902406, 40.3046437]]]
      }
    },
    {
      "type": "Feature",
      "properties": {"type": "simulation_boundary"},
      "geometry": {
        "type": "Polygon",
        "coordinates": [[[122.17957812526254, 40.3088494970408], [122.20560109281382, 40.3088494970408], [122.20560109281382, 40.29411264520297], [122.17957812526254, 40.29411264520297], [122.17957812526254, 40.3088494970408]]]
      }
    }
  ]
}
